$$SOE
2460721.500000000, A.D. 2025-Feb-15 00:00:00.0000, 5.605782260851534E+07, 5.053701033441602E+08, 4.370326962075740E+06,
2460728.500000000, A.D. 2025-Feb-22 00:00:00.0000, 4.623190151910312E+07, 5.064269661015785E+08, 5.301089838902891E+06,
2460735.500000000, A.D. 2025-Mar-01 00:00:00.0000, 3.638906342095885E+07, 5.072975278236372E+08, 6.229867062028021E+06,
2460742.500000000, A.D. 2025-Mar-08 00:00:00.0000, 2.653295410037758E+07, 5.079815484283245E+08, 7.156314846933097E+06,
2460749.500000000, A.D. 2025-Mar-15 00:00:00.0000, 1.666722201959310E+07, 5.084788652867910E+08, 8.080090783919752E+06,
2460756.500000000, A.D. 2025-Mar-22 00:00:00.0000, 6.795514297752892E+06, 5.087893936012035E+08, 9.000854250507742E+06,
2460763.500000000, A.D. 2025-Mar-29 00:00:00.0000, -3.078525928861768E+06, 5.089131244795531E+08, 9.918266512600094E+06,
2460770.500000000, A.D. 2025-Apr-05 00:00:00.0000, -1.295126044069360E+07, 5.088501238474636E+08, 1.083199074058351E+07,
2460777.500000000, A.D. 2025-Apr-12 00:00:00.0000, -2.281905708635611E+07, 5.086005323014051E+08, 1.174169212498051E+07,
2460784.500000000, A.D. 2025-Apr-19 00:00:00.0000, -3.267829133722357E+07, 5.081645650216380E+08, 1.264703803639093E+07,
2460791.500000000, A.D. 2025-Apr-26 00:00:00.0000, -4.252534797225098E+07, 5.075425115421233E+08, 1.354769818786952E+07,
2460798.500000000, A.D. 2025-May-03 00:00:00.0000, -5.235662277808888E+07, 5.067347353972557E+08, 1.444334479057980E+07,
2460805.500000000, A.D. 2025-May-10 00:00:00.0000, -6.216852423464047E+07, 5.057416736548905E+08, 1.533365270056042E+07,
2460812.500000000, A.D. 2025-May-17 00:00:00.0000, -7.195747514811212E+07, 5.045638362954708E+08, 1.621829954969239E+07,
2460819.500000000, A.D. 2025-May-24 00:00:00.0000, -8.171991405653183E+07, 5.032018053836503E+08, 1.709696584033448E+07,
2460826.500000000, A.D. 2025-May-31 00:00:00.0000, -9.145229598908252E+07, 5.016562343444542E+08, 1.796933499064934E+07,
2460833.500000000, A.D. 2025-Jun-07 00:00:00.0000, -1.011510929793833E+08, 4.999278485505271E+08, 1.883509346580735E+07,
2460840.500000000, A.D. 2025-Jun-14 00:00:00.0000, -1.108127966955631E+08, 4.980174465553355E+08, 1.969393115736571E+07,
2460847.500000000, A.D. 2025-Jun-21 00:00:00.0000, -1.204339219686621E+08, 4.959258987004304E+08, 2.054554163187090E+07,
2460854.500000000, A.D. 2025-Jun-28 00:00:00.0000, -1.300110080915618E+08, 4.936541448619220E+08, 2.138962210611090E+07,
2460861.500000000, A.D. 2025-Jul-05 00:00:00.0000, -1.395406194048795E+08, 4.912031934955912E+08, 2.222587346440089E+07,
2460868.500000000, A.D. 2025-Jul-12 00:00:00.0000, -1.490193463593926E+08, 4.885741211770516E+08, 2.305400036132774E+07,
2460875.500000000, A.D. 2025-Jul-19 00:00:00.0000, -1.584438068644541E+08, 4.857680720628191E+08, 2.387371134562957E+07,
2460882.500000000, A.D. 2025-Jul-26 00:00:00.0000, -1.678106477118745E+08, 4.827862572169127E+08, 2.468471898143238E+07,
2460889.500000000, A.D. 2025-Aug-02 00:00:00.0000, -1.771165460093694E+08, 4.796299538261024E+08, 2.548673996273270E+07,
2460896.500000000, A.D. 2025-Aug-09 00:00:00.0000, -1.863582105996652E+08, 4.763005042907935E+08, 2.627949521793699E+07,
2460903.500000000, A.D. 2025-Aug-16 00:00:00.0000, -1.955323833878710E+08, 4.727993151300318E+08, 2.706270999242258E+07,
2460910.500000000, A.D. 2025-Aug-23 00:00:00.0000, -2.046358402841307E+08, 4.691278557188509E+08, 2.783611388386124E+07,
2460917.500000000, A.D. 2025-Aug-30 00:00:00.0000, -2.136653914324991E+08, 4.652876575739281E+08, 2.859944085875580E+07,
2460924.500000000, A.D. 2025-Sep-06 00:00:00.0000, -2.226178821440981E+08, 4.612803151905077E+08, 2.935242946229190E+07,
2460931.500000000, A.D. 2025-Sep-13 00:00:00.0000, -2.314901962038452E+08, 4.571074859501925E+08, 3.009482317204469E+07,
2460938.500000000, A.D. 2025-Sep-20 00:00:00.0000, -2.402792582755096E+08, 4.527708874550301E+08, 3.082637046110359E+07,
2460945.500000000, A.D. 2025-Sep-27 00:00:00.0000, -2.489820343465751E+08, 4.482722953996934E+08, 3.154682472800377E+07,
2460952.500000000, A.D. 2025-Oct-04 00:00:00.0000, -2.575955322295316E+08, 4.436135425228187E+08, 3.225594432260934E+07,
2460959.500000000, A.D. 2025-Oct-11 00:00:00.0000, -2.661168024926564E+08, 4.387965176953924E+08, 3.295349262518620E+07,
2460966.500000000, A.D. 2025-Oct-18 00:00:00.0000, -2.745429395368977E+08, 4.338231648725206E+08, 3.363923813027573E+07,
2460973.500000000, A.D. 2025-Oct-25 00:00:00.0000, -2.828710826801848E+08, 4.286954819213421E+08, 3.431295452353504E+07,
2460980.500000000, A.D. 2025-Nov-01 00:00:00.0000, -2.910984172104165E+08, 4.234155193431537E+08, 3.497442074921077E+07,
2460987.500000000, A.D. 2025-Nov-08 00:00:00.0000, -2.992221753727486E+08, 4.179853788610660E+08, 3.562342106244177E+07,
2460994.500000000, A.D. 2025-Nov-15 00:00:00.0000, -3.072396371430842E+08, 4.124072118169860E+08, 3.625974504788378E+07,
2461001.500000000, A.D. 2025-Nov-22 00:00:00.0000, -3.151481303847751E+08, 4.066832175998002E+08, 3.688318758550072E+07,
2461008.500000000, A.D. 2025-Nov-29 00:00:00.0000, -3.229450305418633E+08, 4.008156432412992E+08, 3.749354887011981E+07,
2461015.500000000, A.D. 2025-Dec-06 00:00:00.0000, -3.306277621468694E+08, 3.948067840460089E+08, 3.809063468236607E+07,
2461022.500000000, A.D. 2025-Dec-13 00:00:00.0000, -3.381938017087982E+08, 3.886589818866332E+08, 3.867425659560242E+07,
2461029.500000000, A.D. 2025-Dec-20 00:00:00.0000, -3.456406784871505E+08, 3.823746221881880E+08, 3.924423188193977E+07,
2461036.500000000, A.D. 2025-Dec-27 00:00:00.0000, -3.529659742269117E+08, 3.759561321928890E+08, 3.980038342756629E+07,
2461043.500000000, A.D. 2026-Jan-03 00:00:00.0000, -3.601673233148162E+08, 3.694059798928691E+08, 4.034253974101014E+07,
2461050.500000000, A.D. 2026-Jan-10 00:00:00.0000, -3.672424132470927E+08, 3.627266729541065E+08, 4.087053498887110E+07,
2461057.500000000, A.D. 2026-Jan-17 00:00:00.0000, -3.741889851760070E+08, 3.559207575417949E+08, 4.138420903030671E+07,
2461064.500000000, A.D. 2026-Jan-24 00:00:00.0000, -3.810048344572890E+08, 3.489908170716128E+08, 4.188340744509487E+07,
2461071.500000000, A.D. 2026-Jan-31 00:00:00.0000, -3.876878111750256E+08, 3.419394708812858E+08, 4.236798155262186E+07,
2461078.500000000, A.D. 2026-Feb-07 00:00:00.0000, -3.942358205825117E+08, 3.347693727667835E+08, 4.283778841155991E+07,
2461085.500000000, A.D. 2026-Feb-14 00:00:00.0000, -4.006468232060184E+08, 3.274832093692885E+08, 4.329269077584009E+07,
2461092.500000000, A.D. 2026-Feb-21 00:00:00.0000, -4.069188342241400E+08, 3.200836989910666E+08, 4.373255701860043E+07,
2461099.500000000, A.D. 2026-Feb-28 00:00:00.0000, -4.130499232084928E+08, 3.125735919947142E+08, 4.415726121798235E+07,
2461106.500000000, A.D. 2026-Mar-07 00:00:00.0000, -4.190382162858484E+08, 3.049556708375216E+08, 4.456668343442835E+07,
2461113.500000000, A.D. 2026-Mar-14 00:00:00.0000, -4.248818979460956E+08, 2.972327474098338E+08, 4.496070973444624E+07,
2461120.500000000, A.D. 2026-Mar-21 00:00:00.0000, -4.305792107127322E+08, 2.894076605752333E+08, 4.533923203428361E+07,
2461127.500000000, A.D. 2026-Mar-28 00:00:00.0000, -4.361284546868607E+08, 2.814832749415206E+08, 4.570214803213193E+07,
2461134.500000000, A.D. 2026-Apr-04 00:00:00.0000, -4.415279875699813E+08, 2.734624798984669E+08, 4.604936120565900E+07,
2461141.500000000, A.D. 2026-Apr-11 00:00:00.0000, -4.467762248922156E+08, 2.653481885637246E+08, 4.638078082063712E+07,
2461148.500000000, A.D. 2026-Apr-18 00:00:00.0000, -4.518716402869387E+08, 2.571433366309862E+08, 4.669632193579143E+07,
2461155.500000000, A.D. 2026-Apr-25 00:00:00.0000, -4.568127657662891E+08, 2.488508811357252E+08, 4.699590540114373E+07,
2461162.500000000, A.D. 2026-May-02 00:00:00.0000, -4.615981919671846E+08, 2.404737991095519E+08, 4.727945784488188E+07,
2461169.500000000, A.D. 2026-May-09 00:00:00.0000, -4.662265682434850E+08, 2.320150860576982E+08, 4.754691163215858E+07,
2461176.500000000, A.D. 2026-May-16 00:00:00.0000, -4.706966022263898E+08, 2.234777543987381E+08, 4.779820477263905E+07,
2461183.500000000, A.D. 2026-May-23 00:00:00.0000, -4.750070588010757E+08, 2.148648328895065E+08, 4.803328085567771E+07,
2461190.500000000, A.D. 2026-May-30 00:00:00.0000, -4.791567605781955E+08, 2.061793673552098E+08, 4.825208922986376E+07,
2461197.500000000, A.D. 2026-Jun-06 00:00:00.0000, -4.831445901779640E+08, 1.974244194520060E+08, 4.845458518846174E+07,
2461204.500000000, A.D. 2026-Jun-13 00:00:00.0000, -4.869694906598493E+08, 1.886030636613583E+08, 4.864072984057361E+07,
2461211.500000000, A.D. 2026-Jun-20 00:00:00.0000, -4.906304645981120E+08, 1.797183854409296E+08, 4.881048995279008E+07,
2461218.500000000, A.D. 2026-Jun-27 00:00:00.0000, -4.941265735033687E+08, 1.707734801912128E+08, 4.896383788917142E+07,
2461225.500000000, A.D. 2026-Jul-04 00:00:00.0000, -4.974569375927718E+08, 1.617714522636685E+08, 4.910075158621702E+07,
2461232.500000000, A.D. 2026-Jul-11 00:00:00.0000, -5.006207356564771E+08, 1.527154138796693E+08, 4.922121452870377E+07,
2461239.500000000, A.D. 2026-Jul-18 00:00:00.0000, -5.036172049285793E+08, 1.436084839870481E+08, 4.932521571986752E+07,
2461246.500000000, A.D. 2026-Jul-25 00:00:00.0000, -5.064456409385831E+08, 1.344537870577536E+08, 4.941274964375038E+07,
2461253.500000000, A.D. 2026-Aug-01 00:00:00.0000, -5.091053972956471E+08, 1.252544517790124E+08, 4.948381621121197E+07,
2461260.500000000, A.D. 2026-Aug-08 00:00:00.0000, -5.115958851909903E+08, 1.160136096024576E+08, 4.953842066683675E+07,
2461267.500000000, A.D. 2026-Aug-15 00:00:00.0000, -5.139165722036344E+08, 1.067343936017951E+08, 4.957657345538472E+07,
2461274.500000000, A.D. 2026-Aug-22 00:00:00.0000, -5.160669811708795E+08, 9.741993886024301E+07, 4.959829021733594E+07,
2461281.500000000, A.D. 2026-Aug-29 00:00:00.0000, -5.180466914138051E+08, 8.807338301493667E+07, 4.960359201132593E+07,
2461288.500000000, A.D. 2026-Sep-05 00:00:00.0000, -5.198553401857319E+08, 7.869786409091762E+07, 4.959250533354609E+07,
$$EOE